{"type": "FeatureCollection", "features": [ {"type": "Feature", "properties": {"norad_id": 31258, "name": "FENGYUN 1C DEB", "group": "fengyun-1c-debris", "lat": -57.14898006588783, "lon": 147.13179465373642, "alt_km": 535.5086190589554, "timestamp": "2025-12-10T14:53:37.372760+00:00", "meta": {"OBJECT_NAME": "FENGYUN 1C DEB", "OBJECT_ID": "1999-025BMQ", "EPOCH": "2025-12-09T09:11:55.224384", "MEAN_MOTION": 15.11060153, "ECCENTRICITY": 0.0004273, "INCLINATION": 98.8493, "RA_OF_ASC_NODE": 131.7395, "ARG_OF_PERICENTER": 296.4738, "MEAN_ANOMALY": 117.6618, "EPHEMERIS_TYPE": 0, "CLASSIFICATION_TYPE": "U", "NORAD_CAT_ID": 31258, "ELEMENT_SET_NO": 999, "REV_AT_EPOCH": 97060, "BSTAR": 0.012371053, "MEAN_MOTION_DOT": 0.00213033, "MEAN_MOTION_DDOT": 0}, "tle": {"line1": "1 31258U 99025BMQ 25343.38327806  .00213033  00000+0  12371-1 0  9994", "line2": "2 31258  98.8493 131.7395 0004273 296.4738 117.6618 15.11060153970601"}}, "geometry": {"type": "Point", "coordinates": [147.13179465373642, -57.14898006588783]}}, {"type": "Feature", "properties": {"norad_id": 31259, "name": "FENGYUN 1C DEB", "group": "fengyun-1c-debris", "lat": -47.63083984744382, "lon": -126.22021852193411, "alt_km": 806.5302677539157, "timestamp": "2025-12-10T14:53:37.372769+00:00", "meta": {"OBJECT_NAME": "FENGYUN 1C DEB", "OBJECT_ID": "1999-025BMR", "EPOCH": "2025-12-10T03:46:42.682080", "MEAN_MOTION": 14.14997564, "ECCENTRICITY": 0.00657715, "INCLINATION": 99.0093, "RA_OF_ASC_NODE": 63.3289, "ARG_OF_PERICENTER": 203.0676, "MEAN_ANOMALY": 187.047, "EPHEMERIS_TYPE": 0, "CLASSIFICATION_TYPE": "U", "NORAD_CAT_ID": 31259, "ELEMENT_SET_NO": 999, "REV_AT_EPOCH": 95533, "BSTAR": 0.0026461291, "MEAN_MOTION_DOT": 5.187e-05, "MEAN_MOTION_DDOT": 0}, "tle": {"line1": "1 31259U 99025BMR 25344.15743845  .00005187  00000+0  26461-2 0  9991", "line2": "2 31259  99.0093  63.3289 0065771 203.0676 187.0470 14.14997564955335"}}, "geometry": {"type": "Point", "coordinates": [-126.22021852193411, -47.63083984744382]}}, {"type": "Feature", "properties": {"norad_id": 31260, "name": "FENGYUN 1C DEB", "group": "fengyun-1c-debris", "lat": 30.958974372213888, "lon": 66.90600345357716, "alt_km": 797.9740073348758, "timestamp": "2025-12-10T14:53:37.372778+00:00", "meta": {"OBJECT_NAME": "FENGYUN 1C DEB", "OBJECT_ID": "1999-025BMS", "EPOCH": "2025-12-10T04:52:44.738112", "MEAN_MOTION": 14.36403673, "ECCENTRICITY": 0.00472279, "INCLINATION": 98.9563, "RA_OF_ASC_NODE": 241.0438, "ARG_OF_PERICENTER": 300.1272, "MEAN_ANOMALY": 212.1277, "EPHEMERIS_TYPE": 0, "CLASSIFICATION_TYPE": "U", "NORAD_CAT_ID": 31260, "ELEMENT_SET_NO": 999, "REV_AT_EPOCH": 97157, "BSTAR": 0.0016155808, "MEAN_MOTION_DOT": 4.748e-05, "MEAN_MOTION_DDOT": 0}, "tle": {"line1": "1 31260U 99025BMS 25344.20329558  .00004748  00000+0  16156-2 0  9992", "line2": "2 31260  98.9563 241.0438 0047227 300.1272 212.1277 14.36403673971571"}}, "geometry": {"type": "Point", "coordinates": [66.90600345357716, 30.958974372213888]}}, {"type": "Feature", "properties": {"norad_id": 31261, "name": "FENGYUN 1C DEB", "group": "fengyun-1c-debris", "lat": 43.29595736489296, "lon": 126.52168140005044, "alt_km": 762.7773041392484, "timestamp": "2025-12-10T14:53:37.372787+00:00", "meta": {"OBJECT_NAME": "FENGYUN 1C DEB", "OBJECT_ID": "1999-025BMT", "EPOCH": "2025-12-10T02:35:12.540192", "MEAN_MOTION": 14.40055853, "ECCENTRICITY": 0.00500148, "INCLINATION": 99.0151, "RA_OF_ASC_NODE": 297.3793, "ARG_OF_PERICENTER": 240.8939, "MEAN_ANOMALY": 118.7235, "EPHEMERIS_TYPE": 0, "CLASSIFICATION_TYPE": "U", "NORAD_CAT_ID": 31261, "ELEMENT_SET_NO": 999, "REV_AT_EPOCH": 97312, "BSTAR": 0.0015223834, "MEAN_MOTION_DOT": 4.825e-05, "MEAN_MOTION_DDOT": 0}, "tle": {"line1": "1 31261U 99025BMT 25344.10778403  .00004825  00000+0  15224-2 0  9990", "line2": "2 31261  99.0151 297.3793 0050014 240.8939 118.7235 14.40055853973129"}}, "geometry": {"type": "Point", "coordinates": [126.52168140005044, 43.29595736489296]}}, {"type": "Feature", "properties": {"norad_id": 31262, "name": "FENGYUN 1C DEB", "group": "fengyun-1c-debris", "lat": -38.01447228238428, "lon": 75.16969900067431, "alt_km": 869.7174087618187, "timestamp": "2025-12-10T14:53:37.372796+00:00", "meta": {"OBJECT_NAME": "FENGYUN 1C DEB", "OBJECT_ID": "1999-025BMU", "EPOCH": "2025-12-10T05:02:55.294080", "MEAN_MOTION": 14.18156639, "ECCENTRICITY": 0.00555427, "INCLINATION": 99.0037, "RA_OF_ASC_NODE": 67.6343, "ARG_OF_PERICENTER": 105.4028, "MEAN_ANOMALY": 283.4025, "EPHEMERIS_TYPE": 0, "CLASSIFICATION_TYPE": "U", "NORAD_CAT_ID": 31262, "ELEMENT_SET_NO": 999, "REV_AT_EPOCH": 95673, "BSTAR": 0.0024850378, "MEAN_MOTION_DOT": 5.14e-05, "MEAN_MOTION_DDOT": 0}, "tle": {"line1": "1 31262U 99025BMU 25344.21036220  .00005140  00000+0  24850-2 0  9993", "line2": "2 31262  99.0037  67.6343 0055542 105.4028 283.4025 14.18156639956732"}}, "geometry": {"type": "Point", "coordinates": [75.16969900067431, -38.01447228238428]}}, {"type": "Feature", "properties": {"norad_id": 31263, "name": "FENGYUN 1C DEB", "group": "fengyun-1c-debris", "lat": 52.208107066683795, "lon": -103.4926518936626, "alt_km": 413.30532019430757, "timestamp": "2025-12-10T14:53:37.372804+00:00", "meta": {"OBJECT_NAME": "FENGYUN 1C DEB", "OBJECT_ID": "1999-025BMV", "EPOCH": "2025-12-10T05:20:59.404128", "MEAN_MOTION": 15.46423657, "ECCENTRICITY": 0.0022969, "INCLINATION": 98.9891, "RA_OF_ASC_NODE": 267.7937, "ARG_OF_PERICENTER": 120.0043, "MEAN_ANOMALY": 240.3485, "EPHEMERIS_TYPE": 0, "CLASSIFICATION_TYPE": "U", "NORAD_CAT_ID": 31263, "ELEMENT_SET_NO": 999, "REV_AT_EPOCH": 97127, "BSTAR": 0.02246652, "MEAN_MOTION_DOT": 0.01232313, "MEAN_MOTION_DDOT": 0}, "tle": {"line1": "1 31263U 99025BMV 25344.22290977  .01232313  00000+0  22467-1 0  9992", "line2": "2 31263  98.9891 267.7937 0022969 120.0043 240.3485 15.46423657971275"}}, "geometry": {"type": "Point", "coordinates": [-103.4926518936626, 52.208107066683795]}}, {"type": "Feature", "properties": {"norad_id": 31264, "name": "FENGYUN 1C DEB", "group": "fengyun-1c-debris", "lat": -66.7708010682817, "lon": -96.49027774340011, "alt_km": 837.0877126534224, "timestamp": "2025-12-10T14:53:37.372814+00:00", "meta": {"OBJECT_NAME": "FENGYUN 1C DEB", "OBJECT_ID": "1999-025BMW", "EPOCH": "2025-12-07T22:57:40.709088", "MEAN_MOTION": 14.18572534, "ECCENTRICITY": 0.00012296, "INCLINATION": 99.1145, "RA_OF_ASC_NODE": 238.8095, "ARG_OF_PERICENTER": 11.7195, "MEAN_ANOMALY": 3.3983, "EPHEMERIS_TYPE": 0, "CLASSIFICATION_TYPE": "U", "NORAD_CAT_ID": 31264, "ELEMENT_SET_NO": 999, "REV_AT_EPOCH": 96361, "BSTAR": 0.00088735964, "MEAN_MOTION_DOT": 1.79e-05, "MEAN_MOTION_DDOT": 0}, "tle": {"line1": "1 31264U 99025BMW 25341.95672117  .00001790  00000+0  88736-3 0  9995", "line2": "2 31264  99.1145 238.8095 0001229  11.7195   3.3983 14.18572534963611"}}, "geometry": {"type": "Point", "coordinates": [-96.49027774340011, -66.7708010682817]}}, {"type": "Feature", "properties": {"norad_id": 31266, "name": "FENGYUN 1C DEB", "group": "fengyun-1c-debris", "lat": -63.473198988145754, "lon": -13.381193088481968, "alt_km": 731.5753200314157, "timestamp": "2025-12-10T14:53:37.372823+00:00", "meta": {"OBJECT_NAME": "FENGYUN 1C DEB", "OBJECT_ID": "1999-025BMY", "EPOCH": "2025-12-10T05:09:40.370112", "MEAN_MOTION": 14.22328138, "ECCENTRICITY": 0.01297363, "INCLINATION": 99.2571, "RA_OF_ASC_NODE": 327.1228, "ARG_OF_PERICENTER": 291.456, "MEAN_ANOMALY": 88.1763, "EPHEMERIS_TYPE": 0, "CLASSIFICATION_TYPE": "U", "NORAD_CAT_ID": 31266, "ELEMENT_SET_NO": 999, "REV_AT_EPOCH": 97170, "BSTAR": 0.00055247444, "MEAN_MOTION_DOT": 1.289e-05, "MEAN_MOTION_DDOT": 0}, "tle": {"line1": "1 31266U 99025BMY 25344.21505058  .00001289  00000+0  55247-3 0  9992", "line2": "2 31266  99.2571 327.1228 0129736 291.4560  88.1763 14.22328138971704"}}, "geometry": {"type": "Point", "coordinates": [-13.381193088481968, -63.473198988145754]}}, {"type": "Feature", "properties": {"norad_id": 31268, "name": "FENGYUN 1C DEB", "group": "fengyun-1c-debris", "lat": -20.523694491446715, "lon": -156.41065094253815, "alt_km": 841.8463403233254, "timestamp": "2025-12-10T14:53:37.372832+00:00", "meta": {"OBJECT_NAME": "FENGYUN 1C DEB", "OBJECT_ID": "1999-025BNA", "EPOCH": "2025-11-30T20:01:13.105344", "MEAN_MOTION": 14.06369123, "ECCENTRICITY": 0.00492969, "INCLINATION": 98.7575, "RA_OF_ASC_NODE": 17.4295, "ARG_OF_PERICENTER": 216.6529, "MEAN_ANOMALY": 143.1264, "EPHEMERIS_TYPE": 0, "CLASSIFICATION_TYPE": "U", "NORAD_CAT_ID": 31268, "ELEMENT_SET_NO": 999, "REV_AT_EPOCH": 61865, "BSTAR": 0.00085236082, "MEAN_MOTION_DOT": 1.38e-05, "MEAN_MOTION_DDOT": 0}, "tle": {"line1": "1 31268U 99025BNA 25334.83417946  .00001380  00000+0  85236-3 0  9992", "line2": "2 31268  98.7575  17.4295 0049296 216.6529 143.1264 14.06369123618654"}}, "geometry": {"type": "Point", "coordinates": [-156.41065094253815, -20.523694491446715]}}, {"type": "Feature", "properties": {"norad_id": 31269, "name": "FENGYUN 1C DEB", "group": "fengyun-1c-debris", "lat": 29.40988261866221, "lon": -141.8792639101574, "alt_km": 793.6185278307566, "timestamp": "2025-12-10T14:53:37.372840+00:00", "meta": {"OBJECT_NAME": "FENGYUN 1C DEB", "OBJECT_ID": "1999-025BNB", "EPOCH": "2025-12-10T03:50:05.924256", "MEAN_MOTION": 14.43609421, "ECCENTRICITY": 0.02403919, "INCLINATION": 98.1797, "RA_OF_ASC_NODE": 222.3281, "ARG_OF_PERICENTER": 283.468, "MEAN_ANOMALY": 230.4508, "EPHEMERIS_TYPE": 0, "CLASSIFICATION_TYPE": "U", "NORAD_CAT_ID": 31269, "ELEMENT_SET_NO": 999, "REV_AT_EPOCH": 96449, "BSTAR": 0.0033588389, "MEAN_MOTION_DOT": 0.00016176, "MEAN_MOTION_DDOT": 0}, "tle": {"line1": "1 31269U 99025BNB 25344.15979079  .00016176  00000+0  33588-2 0  9990", "line2": "2 31269  98.1797 222.3281 0240391 283.4680 230.4508 14.43609421964492"}}, "geometry": {"type": "Point", "coordinates": [-141.8792639101574, 29.40988261866221]}}]}